NORAD_CAT_ID,OBJECT_NAME,OBJECT_TYPE,EPOCH,MEAN_MOTION,ECCENTRICITY,INCLINATION,RA_OF_ASC_NODE,ARG_OF_PERICENTER,MEAN_ANOMALY,BSTAR,MEAN_MOTION_DOT,MEAN_MOTION_DDOT,TLE_LINE0,TLE_LINE1,TLE_LINE2,SEMIMAJOR_AXIS,PERIOD,APOGEE,PERIGEE,DECAYED
51795.0,STARLINK-3586,PAYLOAD,2023-05-20 13:25:36,15.08858349,0.0001136,53.2157,266.6179,101.5887,258.5232,2.9733e-05,1.86e-06,0.0,0 STARLINK-3586,1 51795U 22017AD  23140.55944967  .00000186  00000-0  29733-4 0  9991,2 51795  53.2157 266.6179 0001136 101.5887 258.5232 15.08858349 69317,6917.824,95.436,540.475,538.903,0.0
51795.0,STARLINK-3586,PAYLOAD,2023-05-21 08:30:14,15.08840327,0.0001154,53.2172,263.0516,88.0694,272.043,3.8901e-05,3.31e-06,0.0,0 STARLINK-3586,1 51795U 22017AD  23141.35433889  .00000331  00000-0  38901-4 0  9995,2 51795  53.2172 263.0516 0001154  88.0694 272.0430 15.08840327 69436,6917.879,95.438,540.543,538.946,0.0
51795.0,STARLINK-3586,PAYLOAD,2023-05-21 11:41:01,15.08835327,0.0001622,53.2155,262.447,132.0515,228.0615,-6.4482e-05,-1.314e-05,0.0,0 STARLINK-3586,1 51795U 22017AD  23141.48681894 -.00001314  00000-0 -64482-4 0  9997,2 51795  53.2155 262.4470 0001622 132.0515 228.0615 15.08835327 69453,6917.895,95.438,540.882,538.638,0.0
51795.0,STARLINK-3586,PAYLOAD,2023-05-21 14:51:47,15.08831488,8.8e-05,53.2154,261.8537,121.9583,238.1495,-9.3894e-05,-1.781e-05,0.0,0 STARLINK-3586,1 51795U 22017AD  23141.61930205 -.00001781  00000-0 -93894-4 0  9992,2 51795  53.2154 261.8537 0000880 121.9583 238.1495 15.08831488 69470,6917.906,95.438,540.38,539.163,0.0
51795.0,STARLINK-3586,PAYLOAD,2023-05-22 00:24:06,15.08842079,9.41e-05,53.2169,260.0747,107.6451,252.4644,-0.00024388,-4.167e-05,0.0,0 STARLINK-3586,1 51795U 22017AD  23142.01674105 -.00004167  00000-0 -24388-3 0  9993,2 51795  53.2169 260.0747 0000941 107.6451 252.4644 15.08842079 69533,6917.874,95.437,540.39,539.088,0.0
51795.0,STARLINK-3586,PAYLOAD,2023-05-22 11:31:48,15.08840195,8.89e-05,53.216,257.9899,84.1988,275.9106,-6.7712e-05,-1.365e-05,0.0,0 STARLINK-3586,1 51795U 22017AD  23142.48042145 -.00001365  00000-0 -67712-4 0  9993,2 51795  53.2160 257.9899 0000889  84.1988 275.9106 15.08840195 69600,6917.88,95.438,540.36,539.13,0.0
51795.0,STARLINK-3586,PAYLOAD,2023-05-22 14:42:34,15.08846703,0.000118,53.2171,257.3998,112.1694,247.9424,-1.012e-06,-3.04e-06,0.0,0 STARLINK-3586,1 51795U 22017AD  23142.61289813 -.00000304  00000-0 -10120-5 0  9997,2 51795  53.2171 257.3998 0001180 112.1694 247.9424 15.08846703 69622,6917.86,95.437,540.541,538.909,0.0
51795.0,STARLINK-3586,PAYLOAD,2023-05-23 11:22:36,15.08833803,0.0001164,53.2173,253.5369,97.8216,262.2908,0.00019482,2.814e-05,0.0,0 STARLINK-3586,1 51795U 22017AD  23143.47402863  .00002814  00000-0  19482-3 0  9998,2 51795  53.2173 253.5369 0001164  97.8216 262.2908 15.08833803 69753,6917.899,95.438,540.57,538.959,0.0
51795.0,STARLINK-3586,PAYLOAD,2023-05-23 14:33:22,15.08836561,0.0001096,53.217,252.9388,87.7698,272.3419,0.00020495,2.975e-05,0.0,0 STARLINK-3586,1 51795U 22017AD  23143.60650786  .00002975  00000-0  20495-3 0  9996,2 51795  53.2170 252.9388 0001096  87.7698 272.3419 15.08836561 69775,6917.891,95.438,540.514,538.998,0.0
51795.0,STARLINK-3586,PAYLOAD,2023-05-24 14:24:09,15.08841931,0.0001167,53.2171,248.4799,90.2554,269.8572,7.8929e-05,9.69e-06,0.0,0 STARLINK-3586,1 51795U 22017AD  23144.60010631  .00000969  00000-0  78929-4 0  9993,2 51795  53.2171 248.4799 0001167  90.2554 269.8572 15.08841931 69926,6917.874,95.437,540.547,538.932,0.0
51795.0,STARLINK-3586,PAYLOAD,2023-05-25 14:14:56,15.08840237,0.0001207,53.218,244.0225,87.6605,272.4526,9.9898e-05,1.302e-05,0.0,0 STARLINK-3586,1 51795U 22017AD  23145.59370967  .00001302  00000-0  99898-4 0  9993,2 51795  53.2180 244.0225 0001207  87.6605 272.4526 15.08840237 70079,6917.88,95.438,540.58,538.91,0.0
51795.0,STARLINK-3586,PAYLOAD,2023-05-26 12:30:20,15.08842494,0.0001267,53.2179,239.8594,79.0646,281.0488,4.1272e-05,3.69e-06,0.0,0 STARLINK-3586,1 51795U 22017AD  23146.52106904  .00000369  00000-0  41272-4 0  9990,2 51795  53.2179 239.8594 0001267  79.0646 281.0488 15.08842494 70210,6917.873,95.437,540.614,538.861,0.0
51795.0,STARLINK-3586,PAYLOAD,2023-05-26 23:38:02,15.08843386,0.0001285,53.2179,237.778,78.5126,281.6011,4.174e-05,3.77e-06,0.0,0 STARLINK-3586,1 51795U 22017AD  23146.98474729  .00000377  00000-0  41740-4 0  9992,2 51795  53.2179 237.7780 0001285  78.5126 281.6011 15.08843386 70287,6917.87,95.437,540.624,538.846,0.0
51795.0,STARLINK-3586,PAYLOAD,2023-05-27 12:21:07,15.08842043,0.0001073,53.2171,235.3978,89.2538,270.8577,6.261e-05,7.09e-06,0.0,0 STARLINK-3586,1 51795U 22017AD  23147.51466630  .00000709  00000-0  62610-4 0  9992,2 51795  53.2171 235.3978 0001073  89.2538 270.8577 15.08842043 70368,6917.874,95.437,540.481,538.997,0.0
51795.0,STARLINK-3586,PAYLOAD,2023-05-28 05:50:21,15.08840188,0.0001071,53.2168,232.1267,89.8309,270.2805,5.3759e-05,5.68e-06,0.0,0 STARLINK-3586,1 51795U 22017AD  23148.24330761  .00000568  00000-0  53759-4 0  9995,2 51795  53.2168 232.1267 0001071  89.8309 270.2805 15.08840188 70478,6917.88,95.438,540.486,539.004,0.0
51795.0,STARLINK-3586,PAYLOAD,2023-05-28 12:11:54,15.08843547,0.0001067,53.2167,230.937,91.8676,268.2438,6.3099e-05,7.17e-06,0.0,0 STARLINK-3586,1 51795U 22017AD  23148.50826492  .00000717  00000-0  63099-4 0  9999,2 51795  53.2167 230.9370 0001067  91.8676 268.2438 15.08843547 70519,6917.87,95.437,540.473,538.996,0.0
51795.0,STARLINK-3586,PAYLOAD,2023-05-28 15:22:40,15.08845843,0.0001072,53.2166,230.3419,93.2014,266.9101,7.605e-05,9.23e-06,0.0,0 STARLINK-3586,1 51795U 22017AD  23148.64074266  .00000923  00000-0  76050-4 0  9998,2 51795  53.2166 230.3419 0001072  93.2014 266.9101 15.08845843 70539,6917.863,95.437,540.469,538.986,0.0
51795.0,STARLINK-3586,PAYLOAD,2023-05-29 12:02:40,15.08844064,0.000111,53.2166,226.4756,94.0796,266.0323,5.8118e-05,6.37e-06,0.0,0 STARLINK-3586,1 51795U 22017AD  23149.50186289  .00000637  00000-0  58118-4 0  9990,2 51795  53.2166 226.4756 0001110  94.0796 266.0323 15.08844064 70663,6917.868,95.437,540.501,538.965,0.0
51795.0,STARLINK-3586,PAYLOAD,2023-05-29 21:35:00,15.08837174,0.0001117,53.2165,224.6914,92.5512,267.5608,2.0384e-05,3.7e-07,0.0,0 STARLINK-3586,1 51795U 22017AD  23149.89930818  .00000037  00000-0  20384-4 0  9995,2 51795  53.2165 224.6914 0001117  92.5512 267.5608 15.08837174 70727,6917.889,95.438,540.527,538.981,0.0
51795.0,STARLINK-3586,PAYLOAD,2023-05-30 05:31:56,15.08832556,0.0001171,53.2161,223.2054,92.6675,267.4451,-3.1423e-05,-7.88e-06,0.0,0 STARLINK-3586,1 51795U 22017AD  23150.23051366 -.00000788  00000-0 -31423-4 0  9998,2 51795  53.2161 223.2054 0001171  92.6675 267.4451 15.08832556 70773,6917.903,95.438,540.578,538.958,0.0
51795.0,STARLINK-3586,PAYLOAD,2023-05-30 10:18:05,15.08834449,0.0001152,53.2161,222.3134,91.9405,268.1719,-1.9987e-05,-6.06e-06,0.0,0 STARLINK-3586,1 51795U 22017AD  23150.42923254 -.00000606  00000-0 -19987-4 0  9993,2 51795  53.2161 222.3134 0001152  91.9405 268.1719 15.08834449 70806,6917.897,95.438,540.559,538.965,0.0
51795.0,STARLINK-3586,PAYLOAD,2023-05-30 21:25:47,15.0883779,0.0001168,53.2162,220.2321,92.7687,267.3439,-1.8993e-06,-3.18e-06,0.0,0 STARLINK-3586,1 51795U 22017AD  23150.89291067 -.00000318  00000-0 -18993-5 0  9991,2 51795  53.2162 220.2321 0001168  92.7687 267.3439 15.08837790 70879,6917.887,95.438,540.56,538.944,0.0
51795.0,STARLINK-3586,PAYLOAD,2023-05-31 11:44:15,15.088387,0.0001149,53.2161,217.5564,91.6022,268.5102,2.5221e-05,1.14e-06,0.0,0 STARLINK-3586,1 51795U 22017AD  23151.48907064  .00000114  00000-0  25221-4 0  9991,2 51795  53.2161 217.5564 0001149  91.6022 268.5102 15.08838700 70968,6917.884,95.438,540.544,538.954,0.0
51795.0,STARLINK-3586,PAYLOAD,2023-05-31 21:16:34,15.08837662,0.0001108,53.2165,215.7727,96.8279,263.2839,5.2893e-05,5.54e-06,0.0,0 STARLINK-3586,1 51795U 22017AD  23151.88651068  .00000554  00000-0  52893-4 0  9998,2 51795  53.2165 215.7727 0001108  96.8279 263.2839 15.08837662 71022,6917.888,95.438,540.519,538.986,0.0
51795.0,STARLINK-3586,PAYLOAD,2023-06-01 09:59:39,15.08839183,0.0001057,53.2163,213.3929,94.1118,265.9995,9.6355e-05,1.246e-05,0.0,0 STARLINK-3586,1 51795U 22017AD  23152.41642978  .00001246  00000-0  96355-4 0  9998,2 51795  53.2163 213.3929 0001057  94.1118 265.9995 15.08839183 71105,6917.883,95.438,540.479,539.017,0.0
51795.0,STARLINK-3586,PAYLOAD,2023-06-02 11:25:50,15.08837601,0.0001479,53.2174,208.6321,64.5132,295.6013,2.3678e-05,8.9e-07,0.0,0 STARLINK-3586,1 51795U 22017AD  23153.47627682  .00000089  00000-0  23678-4 0  9992,2 51795  53.2174 208.6321 0001479  64.5132 295.6013 15.08837601 71266,6917.888,95.438,540.776,538.73,0.0
51795.0,STARLINK-3586,PAYLOAD,2023-06-02 20:58:09,15.08838952,0.0001363,53.217,206.852,70.8579,289.2561,2.611e-05,1.28e-06,0.0,0 STARLINK-3586,1 51795U 22017AD  23153.87371611  .00000128  00000-0  26110-4 0  9992,2 51795  53.2170 206.8520 0001363  70.8579 289.2561 15.08838952 71324,6917.884,95.438,540.691,538.806,0.0
51795.0,STARLINK-3586,PAYLOAD,2023-06-03 09:41:14,15.08838992,0.0001288,53.2162,204.4728,71.7114,288.4018,1.7349e-05,-1.2e-07,0.0,0 STARLINK-3586,1 51795U 22017AD  23154.40363637 -.00000012  00000-0  17349-4 0  9998,2 51795  53.2162 204.4728 0001288  71.7114 288.4018 15.08838992 71401,6917.883,95.438,540.639,538.857,0.0
51795.0,STARLINK-3586,PAYLOAD,2023-06-03 20:48:56,15.08838972,0.0001234,53.2163,202.3911,72.6406,287.4721,5.0472e-05,5.15e-06,0.0,0 STARLINK-3586,1 51795U 22017AD  23154.86731518  .00000515  00000-0  50472-4 0  9996,2 51795  53.2163 202.3911 0001234  72.6406 287.4721 15.08838972 71473,6917.884,95.438,540.602,538.895,0.0
51795.0,STARLINK-3586,PAYLOAD,2023-06-03 23:59:42,15.08837182,0.0001224,53.2162,201.7964,73.4359,286.6768,3.861e-05,3.27e-06,0.0,0 STARLINK-3586,1 51795U 22017AD  23154.99979689  .00000327  00000-0  38610-4 0  9994,2 51795  53.2162 201.7964 0001224  73.4359 286.6768 15.08837182 71494,6917.889,95.438,540.601,538.907,0.0
